[{"OBJECT_NAME":"STARLINK-6146","OBJECT_ID":"2023-090Z","EPOCH":"2026-03-09T22:30:45.952704","MEAN_MOTION":15.02534437,"ECCENTRICITY":0.00012028,"INCLINATION":43.0027,"RA_OF_ASC_NODE":273.0488,"ARG_OF_PERICENTER":269.6701,"MEAN_ANOMALY":90.4003,"EPHEMERIS_TYPE":0,"CLASSIFICATION_TYPE":"U","NORAD_CAT_ID":57124,"ELEMENT_SET_NO":999,"REV_AT_EPOCH":15045,"BSTAR":8.0813605e-5,"MEAN_MOTION_DOT":8.88e-6,"MEAN_MOTION_DDOT":0},{"OBJECT_NAME":"COSMOS 2251 DEB","OBJECT_ID":"1993-036SS","EPOCH":"2026-03-09T22:59:54.978144","MEAN_MOTION":15.02003149,"ECCENTRICITY":0.00206055,"INCLINATION":74.0288,"RA_OF_ASC_NODE":253.6967,"ARG_OF_PERICENTER":277.4018,"MEAN_ANOMALY":234.4946,"EPHEMERIS_TYPE":0,"CLASSIFICATION_TYPE":"U","NORAD_CAT_ID":34449,"ELEMENT_SET_NO":999,"REV_AT_EPOCH":89999,"BSTAR":0.0029470254,"MEAN_MOTION_DOT":0.00038984,"MEAN_MOTION_DDOT":0}]
